[{"OBJECT_NAME":"SAUDISAT 2","OBJECT_ID":"2004-025F","EPOCH":"2026-03-09T23:26:36.872160","MEAN_MOTION":14.56616688,"ECCENTRICITY":0.00236721,"INCLINATION":98.5497,"RA_OF_ASC_NODE":66.4072,"ARG_OF_PERICENTER":240.2561,"MEAN_ANOMALY":119.6281,"EPHEMERIS_TYPE":0,"CLASSIFICATION_TYPE":"U","NORAD_CAT_ID":28371,"ELEMENT_SET_NO":999,"REV_AT_EPOCH":15130,"BSTAR":0.00011077467,"MEAN_MOTION_DOT":4.46e-6,"MEAN_MOTION_DDOT":0},{"OBJECT_NAME":"XSS-10","OBJECT_ID":"2003-005B","EPOCH":"2026-03-09T22:36:04.304736","MEAN_MOTION":14.89771195,"ECCENTRICITY":0.01472532,"INCLINATION":39.7452,"RA_OF_ASC_NODE":284.3199,"ARG_OF_PERICENTER":105.9853,"MEAN_ANOMALY":255.7209,"EPHEMERIS_TYPE":0,"CLASSIFICATION_TYPE":"U","NORAD_CAT_ID":27664,"ELEMENT_SET_NO":999,"REV_AT_EPOCH":24782,"BSTAR":0.00036723179,"MEAN_MOTION_DOT":4.24e-5,"MEAN_MOTION_DDOT":0}]
